0 SL-8 DEB
1 21403U 91009BS  13282.82361234  .00000082  00000-0  80108-3 0   816
2 21403 073.9369 325.9894 0136156 225.4018 255.0561 12.31094183 14509
0 SL-8 DEB
1 21403U 91009BS  13285.59526456  .00000087  00000-0  84166-3 0   826
2 21403 073.9364 322.4130 0136107 221.4645 298.7970 12.31094879 14844
0 SL-8 DEB
1 21403U 91009BS  13288.17669267  .00000114  00000-0  10558-2 0   836
2 21403 073.9359 319.0824 0136053 217.7955 219.4891 12.31096092 15169
0 SL-8 DEB
1 21403U 91009BS  13290.44969019  .00000081  00000-0  79215-3 0   847
2 21403 073.9357 316.1489 0135989 214.5538 213.2595 12.31096622 15444
0 SL-8 DEB
1 21403U 91009BS  13292.50043319  .00000095  00000-0  90598-3 0   855
2 21403 073.9357 313.5024 0135923 211.6206 302.0259 12.31097226 15690
0 SL-8 DEB
1 21403U 91009BS  13296.04379426  .00000140  00000-0  12688-2 0   864
2 21403 073.9356 308.9297 0135784 206.5421 166.0025 12.31097853 16131
